[{"norad_id":"48787","company":"ONEWEB","tle_line2":"2 48787  87.9050 330.9397 0002042 116.9212 243.2128 13.15547869196983","launch_date":"2021-05-28","type":"LEO","tle_line1":"1 48787U 21045W   25173.17273830 -.00000056  00000+0 -18160-3 0  9996","satellite_name":"ONEWEB-0210"},{"norad_id":"48788","company":"ONEWEB","tle_line2":"2 48788  87.9049 331.0785 0001765 111.3631 248.7688 13.15548688196857","launch_date":"2021-05-28","type":"LEO","tle_line1":"1 48788U 21045X   25172.42166812  .00000127  00000+0  30231-3 0  9995","satellite_name":"ONEWEB-0214"},{"norad_id":"48789","company":"ONEWEB","tle_line2":"2 48789  87.9052 330.9087 0002103  97.7656 262.3713 13.15547926197076","launch_date":"2021-05-28","type":"LEO","tle_line1":"1 48789U 21045Y   25173.41675376  .00000064  00000+0  13561-3 0  9993","satellite_name":"ONEWEB-0221"},{"norad_id":"48790","company":"ONEWEB","tle_line2":"2 48790  87.9049 330.9633 0001988 104.5220 255.6131 13.15548218197103","launch_date":"2021-05-28","type":"LEO","tle_line1":"1 48790U 21045Z   25173.17748716  .00000111  00000+0  26012-3 0  9995","satellite_name":"ONEWEB-0213"},{"norad_id":"48791","company":"ONEWEB","tle_line2":"2 48791  87.9044 330.9525 0001882  94.5163 265.6183 13.15547121197094","launch_date":"2021-05-28","type":"LEO","tle_line1":"1 48791U 21045AA  25173.15450719 -.00000078  00000+0 -24209-3 0  9997","satellite_name":"ONEWEB-0212"},{"norad_id":"48792","company":"ONEWEB","tle_line2":"2 48792  87.9053 330.9247 0001961  98.2406 261.8947 13.15548866197076","launch_date":"2021-05-28","type":"LEO","tle_line1":"1 48792U 21045AB  25173.38189181 -.00000059  00000+0 -19025-3 0  9994","satellite_name":"ONEWEB-0227"},{"norad_id":"48793","company":"ONEWEB","tle_line2":"2 48793  87.9052 330.9300 0001914 107.6668 252.4671 13.15547220197049","launch_date":"2021-05-28","type":"LEO","tle_line1":"1 48793U 21045AC  25173.37554083 -.00000028  00000+0 -10837-3 0  9999","satellite_name":"ONEWEB-0226"},{"norad_id":"48794","company":"ONEWEB","tle_line2":"2 48794  87.9056 330.9586 0002788  89.0644 271.0806 13.15548595196971","launch_date":"2021-05-28","type":"LEO","tle_line1":"1 48794U 21045AD  25173.41516588  .00000071  00000+0  15519-3 0  9991","satellite_name":"ONEWEB-0224"}]